STARLINK-36334          
1 67471U 26008AC  26041.50002314 -.02018255  00000+0 -55533-1 0  9995
2 67471  43.0004 359.3833 0001621 279.4716 194.9198 15.40034888  5421
STARLINK-36269          
1 67472U 26008AD  26041.50002314 -.02081298  00000+0 -45989-1 0  9997
2 67472  43.0002 359.3685 0001385 271.8742 207.3549 15.46576091  5441
STARLINK-36408          
1 67473U 26008AE  26040.97047914  .00113268  00000+0  19035-2 0  9996
2 67473  43.0004   2.5667 0001425 246.4768 113.5943 15.50655502  5325
ALSAT-3A                
1 67474U 26009A   26041.48646830  .00007292  00000+0  30807-3 0  9997
2 67474  97.4676 116.1369 0012612 163.9602 196.2037 15.23475763  3986
CZ-2C R/B               
1 67475U 26009B   26041.17632581  .00003183  00000+0  21510-3 0  9998
2 67475  97.1747 113.7482 0100421 133.3711 227.5937 15.03138097  3947
TIANQI-37               
1 67476U 26010A   26039.27753693  .00000165  00000+0  15719-3 0  9998
2 67476  44.9825 296.6529 0012909  70.2546 289.9683 14.13528441  3324
TIANQI-38               
1 67477U 26010B   26039.27310946  .00000208  00000+0  17865-3 0  9991
2 67477  44.9788 296.6199 0011754  75.6443 284.5700 14.13905796  3321
TIANQI-39               
1 67478U 26010C   26039.27859865  .00000167  00000+0  15988-3 0  9998
2 67478  44.9839 296.6613 0016488  82.3005 277.9705 14.13055169  3329
TIANQI-40               
1 67479U 26010D   26040.19213046  .00000156  00000+0  15351-3 0  9999
2 67479  44.9786 292.4342 0011741  80.4003 279.8161 14.13182235  3454
SZ-20 MODULE            
1 67481U 25082C   26040.96928673  .00024628  00000+0  27050-3 0  9993
2 67481  41.4800  16.3066 0006962 145.5631 214.5661 15.62594222273280
2025-313BE              
1 67482U 25313BE  26040.98738471  .00063906  00000+0  24995-2 0  9994
2 67482  97.4058 117.8480 0008754  85.7854 274.4385 15.25562216  3744
ION SCV-021             
1 67483U 25276DT  26034.18647169 -.00137880  00000+0 -12184-1 0  9992
2 67483  97.5347 109.4970 0011364 207.9438 152.1175 14.97059561  2554
